INTELSAT 902 (IS-902)   
1 26900U 01039A   26119.76398318 -.00000281  00000+0  00000+0 0  9994
2 26900   5.9968  72.3598 0004326 320.9110  49.3917  1.00272651 90210
INTELSAT 904 (IS-904)   
1 27380U 02007A   26119.21294676 -.00000225  00000+0  00000+0 0  9993
2 27380   6.8004  69.7612 0007802 339.5206 213.0664  1.00273223 51273
DIRECTV 5 (TEMPO 1)     
1 27426U 02023A   26119.89466459 -.00000055  00000+0  00000+0 0  9997
2 27426   4.7567  75.8968 0003646 329.5043  24.4230  1.00272555 87636
INTELSAT 905 (IS-905)   
1 27438U 02027A   26119.53276037  .00000095  00000+0  00000+0 0  9999
2 27438   6.6340  70.3749 0003714 341.0281 220.6815  1.00271976 50876
GALAXY 3C (G-3C)        
1 27445U 02030A   26119.89769794 -.00000150  00000+0  00000+0 0  9990
2 27445   3.6070  78.6211 0001756  22.3415 345.1956  1.00272097 46013
INTELSAT 906 (IS-906)   
1 27513U 02041A   26119.92915807  .00000016  00000+0  00000+0 0  9990
2 27513   5.6817  73.4999 0004063 339.2435 203.7826  1.00271246 86544
GALAXY 13 (HORIZONS-1)  
1 27954U 03044A   26119.74413644  .00000133  00000+0  00000+0 0  9995
2 27954   1.2943  84.4241 0002191 318.6234 292.5678  1.00274797 46085
INTELSAT 10-02          
1 28358U 04022A   26119.91624468 -.00000011  00000+0  00000+0 0  9994
2 28358   0.0493  71.9868 0001039  15.1458  99.5478  1.00272914 80073
DIRECTV 8               
1 28659U 05019A   26119.89284459  .00000001  00000+0  00000+0 0  9992
2 28659   0.0047 179.8375 0003343 230.0981  10.2912  1.00273740 76584
GALAXY 28 (G-28)        
1 28702U 05022A   26119.91113133 -.00000198  00000+0  00000+0 0  9996
2 28702   3.1766  79.5116 0003246 324.7465 114.5059  1.00270221 51498
GALAXY 16 (G-16)        
1 29236U 06023A   26119.89691794 -.00000127  00000+0  00000+0 0  9994
2 29236   0.0166 218.7317 0002876 184.1274  38.8833  1.00272345 72484
DIRECTV 9S              
1 29494U 06043A   26119.89648461 -.00000112  00000+0  00000+0 0  9999
2 29494   2.2979  81.4554 0004443 333.7756  24.1494  1.00271976 50894
GALAXY 17 (G-17)        
1 31307U 07016B   26119.89969128 -.00000205  00000+0  00000+0 0  9995
2 31307   2.8518  80.4838 0004497 333.4232  42.8373  1.00272250 69321
INTELSAT 11 (IS-11)     
1 32253U 07044B   26119.84084438 -.00000233  00000+0  00000+0 0  9995
2 32253   3.4414  79.2346 0001030 231.0799 188.5667  0.99053191 67976
HORIZONS-2              
1 32388U 07063B   26119.90185796 -.00000252  00000+0  00000+0 0  9992
2 32388   2.4794  81.1955 0003622 327.3130  60.2267  1.00271833 67330
DIRECTV 11              
1 32729U 08013A   26119.89691794 -.00000126  00000+0  00000+0 0  9995
2 32729   0.0051   5.0206 0000403 351.0972  85.4290  1.00271694 45106
GALAXY 18 (G-18)        
1 32951U 08024A   26119.89206459  .00000025  00000+0  00000+0 0  9991
2 32951   0.0158 264.7155 0003414 144.9990   6.2768  1.00272922 45366
INTELSAT 25 (IS-25)     
1 33153U 08034A   26113.08239256 -.00000278  00000+0  00000+0 0  9994
2 33153   2.5670  80.9425 0002165 274.6153 207.9060  0.99965107 65143
GALAXY 19 (G-19)        
1 33376U 08045A   26119.61203084  .00000000  00000+0  00000+0 0  9990
2 33376   0.0181 248.7856 0003230 161.9251 290.2082  1.00280733 64419
FM-5                    
1 35493U 09034A   26119.89943128 -.00000200  00000+0  00000+0 0  9994
2 35493   0.0144 272.2611 0000307 341.0081 202.2240  1.00270721 46162
INTELSAT 14 (IS-14)     
1 36097U 09064A   26119.90757799 -.00000273  00000+0  00000+0 0  9997
2 36097   0.0049  42.9633 0002587 359.9584  96.6662  1.00271250 60124
INTELSAT 15 (IS-15)     
1 36106U 09067A   26119.93331809 -.00000185  00000+0  00000+0 0  9996
2 36106   0.0137 275.4611 0002408 128.7232 234.8512  1.00271670 40748
DIRECTV 12              
1 36131U 09075A   26119.89613794 -.00000104  00000+0  00000+0 0  9995
2 36131   0.0295 101.3046 0000412 333.1289   3.3030  1.00272720 46069
INTELSAT 16 (IS-16)     
1 36397U 10006A   26119.90142463 -.00000245  00000+0  00000+0 0  9993
2 36397   0.0137 286.6316 0002297 140.1451  39.3901  1.00272527 59172
XM-5                    
1 37185U 10053A   26119.89362459 -.00000023  00000+0  00000+0 0  9992
2 37185   0.0605 271.3025 0003500 273.1770 239.8722  1.00270895 56996
INTELSAT 17 (IS-17)     
1 37238U 10065B   26119.92950473 -.00000002  00000+0  00000+0 0  9994
2 37238   0.0141 226.7029 0002710 189.8622 201.9558  1.00273847 52767
INTELSAT 28 (IS-28)     
1 37392U 11016A   26119.91017799 -.00000224  00000+0  00000+0 0  9992
2 37392   1.6830  83.1810 0004177 320.6697 109.9697  1.00272571 52808
INTELSAT 18 (IS-18)     
1 37834U 11056A   26119.86503049  .00000053  00000+0  00000+0 0  9998
2 37834   0.0136 260.5866 0001995 140.5568 308.0842  1.00271149 53326
INTELSAT 22 (IS-22)     
1 38098U 12011A   26119.93071808 -.00000059  00000+0  00000+0 0  9991
2 38098   0.0161 276.5352 0001907 138.5568 209.9511  1.00275424  6706
INTELSAT 19 (IS-19)     
1 38356U 12030A   26119.87802453  .00000000  00000+0  00000+0 0  9995
2 38356   0.0166 268.5284 0003341 136.8225 294.5734  1.00271201 49969
INTELSAT 20 (IS-20)     
1 38740U 12043A   26119.93002473 -.00000024  00000+0  00000+0 0  9994
2 38740   0.0189 313.0201 0001220  26.7553 281.4007  1.00271302 50266
INTELSAT 21 (IS-21)     
1 38749U 12045A   26119.90497797  .00000000  00000+0  00000+0 0  9992
2 38749   0.0168 263.0475 0002036 147.0525  75.5370  1.00271056 50048
INTELSAT 23 (IS-23)     
1 38867U 12057A   26119.90601797 -.00000285  00000+0  00000+0 0  9999
2 38867   0.0168 277.9467 0000278   1.2389 211.8400  1.00270666 49479
FM-6                    
1 39360U 13058A   26119.39438089 -.00000021  00000+0  00000+0 0  9993
2 39360   0.0145 267.2228 0001438 252.4545  83.3968  1.00293551 45580
INTELSAT 30 (IS-30)     
1 40271U 14062A   26119.82628432 -.00000151  00000+0  00000+0 0  9997
2 40271   0.0146 296.0101 0000938 102.3080  21.8757  1.00269882  6305
DIRECTV 14              
1 40333U 14078B   26119.61159751  .00000000  00000+0  00000+0 0  9995
2 40333   0.0149 282.4263 0000359 214.1751 201.9085  1.00268895 41553
DIRECTV 15              
1 40663U 15026A   26119.89613794  .00000000  00000+0  00000+0 0  9997
2 40663   0.0093  95.8767 0000244  22.7027 318.9948  1.00267481 39974
SKY MEXICO-1            
1 40664U 15026B   26119.33044627 -.00000237  00000+0  00000+0 0  9993
2 40664   0.0128 265.8234 0001983 132.7007 218.9257  1.00273115 39965
INTELSAT 34 (IS-34)     
1 40874U 15039A   26119.90549797 -.00000285  00000+0  00000+0 0  9994
2 40874   0.0136 286.7295 0000224  86.1859 115.4304  1.00270974 39155
INTELSAT 31 (IS-31)     
1 41581U 16035A   26119.89769794 -.00000151  00000+0  00000+0 0  9998
2 41581   0.0117 243.3902 0001964  34.0660 168.5126  1.00270531 36199
INTELSAT 36 (IS-36)     
1 41747U 16053A   26119.57358057 -.00000025  00000+0  00000+0 0  9993
2 41747   0.0172 330.7940 0001273   2.8364 158.8774  1.00271198 35475
INTELSAT 32E (IS-32E)   
1 41945U 17007B   26119.90792465  .00000000  00000+0  00000+0 0  9997
2 41945   0.0159 264.6427 0000073 189.9417  46.9453  1.00267506 33745
INTELSAT 35E (IS-35E)   
1 42818U 17041A   26119.76701653 -.00000238  00000+0  00000+0 0  9992
2 42818   0.0071 196.3008 0002101 201.7160  61.3407  1.00271325 32334
INTELSAT 37E (IS-37E)   
1 42950U 17059A   26119.91295133  .00000000  00000+0  00000+0 0  9992
2 42950   0.0112 256.8592 0002568 172.2272  99.4372  1.00269770 31580
AZERSPACE 2 (IS-38)     
1 43632U 18074A   26119.92543138  .00000000  00000+0  00000+0 0  9990
2 43632   0.0168 259.4459 0001652 149.8681 186.8233  1.00271630 27969
HORIZONS-3E             
1 43633U 18074B   26119.80730424 -.00000031  00000+0  00000+0 0  9999
2 43633   0.0441  90.7827 0000666 247.3901 339.2057  1.00271427 27852
AT&T T-16               
1 44333U 19034A   26119.89648461 -.00000115  00000+0  00000+0 0  9995
2 44333   0.0472  82.5346 0000350 137.5210 219.6656  1.00271348 25140
INTELSAT 39 (IS-39)     
1 44476U 19049B   26119.92872473  .00000000  00000+0  00000+0 0  9997
2 44476   0.0217 262.6265 0000343 328.0470  23.4883  1.00269998 24648
GALAXY 30 (G-30)        
1 46114U 20056C   26119.60648416  .00000036  00000+0  00000+0 0  9990
2 46114   0.0205 264.1221 0002522 147.6046 259.1711  1.00272922 20803
GALAXY 33 (G-33)        
1 54026U 22128A   26119.60082625  .00000078  00000+0  00000+0 0  9993
2 54026   0.0151 278.7119 0001974 117.6968 264.4544  1.00270615 13252
GALAXY 34 (G-34)        
1 54027U 22128B   26119.60570416  .00000000  00000+0  00000+0 0  9999
2 54027   0.0218 249.6919 0001738 160.5121 256.4268  1.00271663 13425
GALAXY 31 (G-31)        
1 54243U 22153A   26119.89241126  .00000013  00000+0  00000+0 0  9995
2 54243   0.0116 242.4683 0001483 161.2241  14.4326  1.00274110  6642
GALAXY 32 (G-32)        
1 54244U 22153B   26119.36071069 -.00000176  00000+0  00000+0 0  9996
2 54244   0.0161 300.9664 0002969  95.8797 219.3264  1.00271772 12656
GALAXY 35 (G-35)        
1 54741U 22170A   26119.89804462 -.00000162  00000+0  00000+0 0  9991
2 54741   0.0119 249.3048 0002199 156.5963  42.1373  1.00273103 12404
GALAXY 36 (G-36)        
1 54742U 22170B   26119.89882462 -.00000185  00000+0  00000+0 0  9993
2 54742   0.0204 162.6339 0002586 259.3717  30.4277  1.00272771 12288
GALAXY 37 (G-37)        
1 57493U 23112A   26119.60613749  .00000000  00000+0  00000+0 0  9990
2 57493   0.0080 267.7556 0002266 133.8734 267.1454  1.00271541 10057
